[{"OBJECT_NAME":"STARLINK-31545","OBJECT_ID":"2024-064C","EPOCH":"2026-03-09T00:07:21.077184","MEAN_MOTION":15.27573669,"ECCENTRICITY":9.766e-5,"INCLINATION":43.0054,"RA_OF_ASC_NODE":59.8202,"ARG_OF_PERICENTER":270.9816,"MEAN_ANOMALY":89.0923,"EPHEMERIS_TYPE":0,"CLASSIFICATION_TYPE":"U","NORAD_CAT_ID":59400,"ELEMENT_SET_NO":999,"REV_AT_EPOCH":10912,"BSTAR":-2.6185324e-5,"MEAN_MOTION_DOT":-9.82e-6,"MEAN_MOTION_DDOT":0},{"OBJECT_NAME":"COSMOS 546","OBJECT_ID":"1973-005A","EPOCH":"2026-03-09T21:40:39.247392","MEAN_MOTION":15.29707303,"ECCENTRICITY":0.00147738,"INCLINATION":50.6327,"RA_OF_ASC_NODE":289.914,"ARG_OF_PERICENTER":261.1516,"MEAN_ANOMALY":98.7778,"EPHEMERIS_TYPE":0,"CLASSIFICATION_TYPE":"U","NORAD_CAT_ID":6350,"ELEMENT_SET_NO":999,"REV_AT_EPOCH":92802,"BSTAR":9.142057e-5,"MEAN_MOTION_DOT":2.316e-5,"MEAN_MOTION_DDOT":0}]
